{
  "type": "FeatureCollection",
  "features": [
    {
      "type": "Feature",
      "properties": {
        "norad_id": 44333,
        "name": "AT&T T-16",
        "group": "intelsat",
        "lat": -0.033237827756479925,
        "lon": -25.603563826270086,
        "alt_km": 35789.681445490445,
        "timestamp": "2025-12-25T22:42:16.664529+00:00",
        "meta_object_name": "AT&T T-16",
        "meta_object_id": "2019-034A",
        "meta_epoch": "2025-12-25T10:42:38.666304",
        "meta_mean_motion": 1.00270684,
        "meta_eccentricity": 7.98e-05,
        "meta_inclination": 0.0229,
        "meta_ra_of_asc_node": 69.9127,
        "meta_arg_of_pericenter": 71.5572,
        "meta_mean_anomaly": 12.5365,
        "meta_ephemeris_type": 0,
        "meta_classification_type": "U",
        "meta_norad_cat_id": 44333,
        "meta_element_set_no": 999,
        "meta_rev_at_epoch": 2389,
        "meta_bstar": 0,
        "meta_mean_motion_dot": -9.4e-07,
        "meta_mean_motion_ddot": 0,
        "tle_line1": "1 44333U 19034A   25359.44628086 -.00000094  00000+0  00000+0 0  9998",
        "tle_line2": "2 44333   0.0229  69.9127 0000798  71.5572  12.5365  1.00270684 23899"
      },
      "geometry": {
        "type": "Point",
        "coordinates": [
          -25.603563826270086,
          -0.033237827756479925
        ]
      }
    },
    {
      "type": "Feature",
      "properties": {
        "norad_id": 44476,
        "name": "INTELSAT 39 (IS-39)",
        "group": "intelsat",
        "lat": 0.034573876307567114,
        "lon": 137.20923214035756,
        "alt_km": 35782.19739295069,
        "timestamp": "2025-12-25T22:42:16.664540+00:00",
        "meta_object_name": "INTELSAT 39 (IS-39)",
        "meta_object_id": "2019-049B",
        "meta_epoch": "2025-12-24T23:39:55.357632",
        "meta_mean_motion": 1.0027611,
        "meta_eccentricity": 6.204e-05,
        "meta_inclination": 0.0209,
        "meta_ra_of_asc_node": 14.9454,
        "meta_arg_of_pericenter": 127.1893,
        "meta_mean_anomaly": 8.5314,
        "meta_ephemeris_type": 0,
        "meta_classification_type": "U",
        "meta_norad_cat_id": 44476,
        "meta_element_set_no": 999,
        "meta_rev_at_epoch": 2338,
        "meta_bstar": 0,
        "meta_mean_motion_dot": 0,
        "meta_mean_motion_ddot": 0,
        "tle_line1": "1 44476U 19049B   25358.98605738  .00000000  00000+0  00000+0 0  9995",
        "tle_line2": "2 44476   0.0209  14.9454 0000620 127.1893   8.5314  1.00276110 23389"
      },
      "geometry": {
        "type": "Point",
        "coordinates": [
          137.20923214035756,
          0.034573876307567114
        ]
      }
    },
    {
      "type": "Feature",
      "properties": {
        "norad_id": 46114,
        "name": "GALAXY 30 (G-30)",
        "group": "intelsat",
        "lat": -0.022778110776446387,
        "lon": -49.72807766874698,
        "alt_km": 35778.84226271905,
        "timestamp": "2025-12-25T22:42:16.664552+00:00",
        "meta_object_name": "GALAXY 30 (G-30)",
        "meta_object_id": "2020-056C",
        "meta_epoch": "2025-12-25T10:50:38.606208",
        "meta_mean_motion": 1.00271181,
        "meta_eccentricity": 0.0002181,
        "meta_inclination": 0.0184,
        "meta_ra_of_asc_node": 339.6266,
        "meta_arg_of_pericenter": 293.6625,
        "meta_mean_anomaly": 218.5799,
        "meta_ephemeris_type": 0,
        "meta_classification_type": "U",
        "meta_norad_cat_id": 46114,
        "meta_element_set_no": 999,
        "meta_rev_at_epoch": 1955,
        "meta_bstar": 0,
        "meta_mean_motion_dot": 5.8e-07,
        "meta_mean_motion_ddot": 0,
        "tle_line1": "1 46114U 20056C   25359.45183572  .00000058  00000+0  00000+0 0  9999",
        "tle_line2": "2 46114   0.0184 339.6266 0002181 293.6625 218.5799  1.00271181 19553"
      },
      "geometry": {
        "type": "Point",
        "coordinates": [
          -49.72807766874698,
          -0.022778110776446387
        ]
      }
    },
    {
      "type": "Feature",
      "properties": {
        "norad_id": 54026,
        "name": "GALAXY 33 (G-33)",
        "group": "intelsat",
        "lat": -0.013604659247194863,
        "lon": -57.7167601406719,
        "alt_km": 35780.25254333083,
        "timestamp": "2025-12-25T22:42:16.664564+00:00",
        "meta_object_name": "GALAXY 33 (G-33)",
        "meta_object_id": "2022-128A",
        "meta_epoch": "2025-12-24T04:31:51.326400",
        "meta_mean_motion": 1.00272122,
        "meta_eccentricity": 0.0001643,
        "meta_inclination": 0.0126,
        "meta_ra_of_asc_node": 315.9231,
        "meta_arg_of_pericenter": 309.5058,
        "meta_mean_anomaly": 122.5078,
        "meta_ephemeris_type": 0,
        "meta_classification_type": "U",
        "meta_norad_cat_id": 54026,
        "meta_element_set_no": 999,
        "meta_rev_at_epoch": 1198,
        "meta_bstar": 0,
        "meta_mean_motion_dot": 1e-06,
        "meta_mean_motion_ddot": 0,
        "tle_line1": "1 54026U 22128A   25358.18878850  .00000100  00000+0  00000+0 0  9999",
        "tle_line2": "2 54026   0.0126 315.9231 0001643 309.5058 122.5078  1.00272122 11987"
      },
      "geometry": {
        "type": "Point",
        "coordinates": [
          -57.7167601406719,
          -0.013604659247194863
        ]
      }
    },
    {
      "type": "Feature",
      "properties": {
        "norad_id": 54027,
        "name": "GALAXY 34 (G-34)",
        "group": "intelsat",
        "lat": -0.03666137645589048,
        "lon": -53.68632347420689,
        "alt_km": 35780.77750775517,
        "timestamp": "2025-12-25T22:42:16.664576+00:00",
        "meta_object_name": "GALAXY 34 (G-34)",
        "meta_object_id": "2022-128B",
        "meta_epoch": "2025-12-25T10:50:38.606208",
        "meta_mean_motion": 1.00270054,
        "meta_eccentricity": 0.0001738,
        "meta_inclination": 0.0222,
        "meta_ra_of_asc_node": 4.8394,
        "meta_arg_of_pericenter": 262.8726,
        "meta_mean_anomaly": 220.2033,
        "meta_ephemeris_type": 0,
        "meta_classification_type": "U",
        "meta_norad_cat_id": 54027,
        "meta_element_set_no": 999,
        "meta_rev_at_epoch": 1217,
        "meta_bstar": 0,
        "meta_mean_motion_dot": 0,
        "meta_mean_motion_ddot": 0,
        "tle_line1": "1 54027U 22128B   25359.45183572  .00000000  00000+0  00000+0 0  9990",
        "tle_line2": "2 54027   0.0222   4.8394 0001738 262.8726 220.2033  1.00270054 12178"
      },
      "geometry": {
        "type": "Point",
        "coordinates": [
          -53.68632347420689,
          -0.03666137645589048
        ]
      }
    },
    {
      "type": "Feature",
      "properties": {
        "norad_id": 54243,
        "name": "GALAXY 31 (G-31)",
        "group": "intelsat",
        "lat": -0.012547497427513729,
        "lon": -45.733869147471665,
        "alt_km": 35780.20025502016,
        "timestamp": "2025-12-25T22:42:16.664588+00:00",
        "meta_object_name": "GALAXY 31 (G-31)",
        "meta_object_id": "2022-153A",
        "meta_epoch": "2025-12-25T06:10:38.819136",
        "meta_mean_motion": 1.00271189,
        "meta_eccentricity": 0.0001633,
        "meta_inclination": 0.0095,
        "meta_ra_of_asc_node": 327.1033,
        "meta_arg_of_pericenter": 317.678,
        "meta_mean_anomaly": 140.8972,
        "meta_ephemeris_type": 0,
        "meta_classification_type": "U",
        "meta_norad_cat_id": 54243,
        "meta_element_set_no": 999,
        "meta_rev_at_epoch": 538,
        "meta_bstar": 0,
        "meta_mean_motion_dot": 3.4e-07,
        "meta_mean_motion_ddot": 0,
        "tle_line1": "1 54243U 22153A   25359.25739374  .00000034  00000+0  00000+0 0  9990",
        "tle_line2": "2 54243   0.0095 327.1033 0001633 317.6780 140.8972  1.00271189  5384"
      },
      "geometry": {
        "type": "Point",
        "coordinates": [
          -45.733869147471665,
          -0.012547497427513729
        ]
      }
    },
    {
      "type": "Feature",
      "properties": {
        "norad_id": 54244,
        "name": "GALAXY 32 (G-32)",
        "group": "intelsat",
        "lat": -0.016043148518197135,
        "lon": -15.723643490606557,
        "alt_km": 35778.534391778194,
        "timestamp": "2025-12-25T22:42:16.664599+00:00",
        "meta_object_name": "GALAXY 32 (G-32)",
        "meta_object_id": "2022-153B",
        "meta_epoch": "2025-12-24T22:56:22.028928",
        "meta_mean_motion": 1.00272509,
        "meta_eccentricity": 0.0001992,
        "meta_inclination": 0.0091,
        "meta_ra_of_asc_node": 20.8495,
        "meta_arg_of_pericenter": 295.2988,
        "meta_mean_anomaly": 30.6679,
        "meta_ephemeris_type": 0,
        "meta_classification_type": "U",
        "meta_norad_cat_id": 54244,
        "meta_element_set_no": 999,
        "meta_rev_at_epoch": 1139,
        "meta_bstar": 0,
        "meta_mean_motion_dot": -1.53e-06,
        "meta_mean_motion_ddot": 0,
        "tle_line1": "1 54244U 22153B   25358.95581052 -.00000153  00000+0  00000+0 0  9998",
        "tle_line2": "2 54244   0.0091  20.8495 0001992 295.2988  30.6679  1.00272509 11394"
      },
      "geometry": {
        "type": "Point",
        "coordinates": [
          -15.723643490606557,
          -0.016043148518197135
        ]
      }
    }
  ]
}